start=new Date('2023-04-06T00:00:00.000Z').valueOf();
sats=[{"TLE_LINE2":"2 48468  53.0528 309.7896 0000982  87.1974 272.9127 15.06439769105402","MEAN_MOTION":"15.06439769","COUNTRY_CODE":"US","CENTER_NAME":"EARTH","DECAY_DATE":null,"PERIAPSIS":"546.412","ECCENTRICITY":"0.00009820","REV_AT_EPOCH":"10540","BSTAR":"0.00107650000000","CLASSIFICATION_TYPE":"U","OBJECT_ID":"2021-040AS","LAUNCH_DATE":"2021-05-09","ELEMENT_SET_NO":"999","EPOCH":"2023-04-05T20:35:03.008544","OBJECT_NAME":"STARLINK-2685","GP_ID":"229570163","RCS_SIZE":"LARGE","REF_FRAME":"TEME","SEMIMAJOR_AXIS":"6925.227","FILE":"3881153","MEAN_MOTION_DDOT":"0.0000000000000","EPHEMERIS_TYPE":"0","RA_OF_ASC_NODE":"309.7896","OBJECT_TYPE":"PAYLOAD","SITE":"AFETR","MEAN_ANOMALY":"272.9127","MEAN_ELEMENT_THEORY":"SGP4","NORAD_CAT_ID":"48468","ARG_OF_PERICENTER":"87.1974","INCLINATION":"53.0528","PERIOD":"95.590","TIME_SYSTEM":"UTC","APOAPSIS":"547.772","MEAN_MOTION_DOT":"0.00015806","TLE_LINE1":"1 48468U 21040AS  23095.85767371  .00015806  00000-0  10765-2 0  9991"},{"ECCENTRICITY":"0.00008760","REV_AT_EPOCH":"10540","DECAY_DATE":null,"PERIAPSIS":"546.490","CENTER_NAME":"EARTH","MEAN_MOTION":"15.06438101","COUNTRY_CODE":"US","TLE_LINE2":"2 48469  53.0532 309.7276 0000876  67.0222 293.0859 15.06438101105400","SEMIMAJOR_AXIS":"6925.232","OBJECT_NAME":"STARLINK-2661","GP_ID":"229568928","RCS_SIZE":"LARGE","REF_FRAME":"TEME","ELEMENT_SET_NO":"999","LAUNCH_DATE":"2021-05-09","EPOCH":"2023-04-05T20:56:16.653408","OBJECT_ID":"2021-040AT","CLASSIFICATION_TYPE":"U","BSTAR":"0.00142530000000","ARG_OF_PERICENTER":"67.0222","PERIOD":"95.590","INCLINATION":"53.0532","MEAN_ANOMALY":"293.0859","MEAN_ELEMENT_THEORY":"SGP4","NORAD_CAT_ID":"48469","SITE":"AFETR","OBJECT_TYPE":"PAYLOAD","EPHEMERIS_TYPE":"0","RA_OF_ASC_NODE":"309.7276","FILE":"3881153","MEAN_MOTION_DDOT":"0.0000000000000","TLE_LINE1":"1 48469U 21040AT  23095.87241497  .00021034  00000-0  14253-2 0  9996","APOAPSIS":"547.703","MEAN_MOTION_DOT":"0.00021034","TIME_SYSTEM":"UTC"},{"SEMIMAJOR_AXIS":"6925.271","RCS_SIZE":"LARGE","GP_ID":"229568678","REF_FRAME":"TEME","OBJECT_NAME":"STARLINK-2675","LAUNCH_DATE":"2021-05-09","EPOCH":"2023-04-05T20:49:35.833440","ELEMENT_SET_NO":"999","OBJECT_ID":"2021-040AU","CLASSIFICATION_TYPE":"U","BSTAR":"0.00137990000000","REV_AT_EPOCH":"10539","ECCENTRICITY":"0.00007030","PERIAPSIS":"546.649","DECAY_DATE":null,"CENTER_NAME":"EARTH","MEAN_MOTION":"15.06425279","COUNTRY_CODE":"US","TLE_LINE2":"2 48470  53.0536 309.7361 0000703  96.7207 263.3862 15.06425279105396","TLE_LINE1":"1 48470U 21040AU  23095.86777585  .00020346  00000-0  13799-2 0  9998","MEAN_MOTION_DOT":"0.00020346","APOAPSIS":"547.623","TIME_SYSTEM":"UTC","PERIOD":"95.591","INCLINATION":"53.0536","ARG_OF_PERICENTER":"96.7207","MEAN_ELEMENT_THEORY":"SGP4","NORAD_CAT_ID":"48470","MEAN_ANOMALY":"263.3862","SITE":"AFETR","OBJECT_TYPE":"PAYLOAD","RA_OF_ASC_NODE":"309.7361","EPHEMERIS_TYPE":"0","MEAN_MOTION_DDOT":"0.0000000000000","FILE":"3881153"},{"CLASSIFICATION_TYPE":"U","OBJECT_ID":"2021-040AV","BSTAR":"0.00133500000000","SEMIMAJOR_AXIS":"6925.274","EPOCH":"2023-04-05T20:40:20.797248","LAUNCH_DATE":"2021-05-09","ELEMENT_SET_NO":"999","GP_ID":"229569930","RCS_SIZE":"LARGE","REF_FRAME":"TEME","OBJECT_NAME":"STARLINK-2684","TLE_LINE2":"2 48471  53.0535 309.7777 0000806  61.2721 298.8349 15.06424217105393","COUNTRY_CODE":"US","MEAN_MOTION":"15.06424217","PERIAPSIS":"546.581","DECAY_DATE":null,"REV_AT_EPOCH":"10539","ECCENTRICITY":"0.00008060","CENTER_NAME":"EARTH","MEAN_MOTION_DOT":"0.00019672","APOAPSIS":"547.698","TIME_SYSTEM":"UTC","TLE_LINE1":"1 48471U 21040AV  23095.86135182  .00019672  00000-0  13350-2 0  9993","RA_OF_ASC_NODE":"309.7777","EPHEMERIS_TYPE":"0","OBJECT_TYPE":"PAYLOAD","MEAN_MOTION_DDOT":"0.0000000000000","FILE":"3881153","MEAN_ELEMENT_THEORY":"SGP4","NORAD_CAT_ID":"48471","MEAN_ANOMALY":"298.8349","PERIOD":"95.591","INCLINATION":"53.0535","ARG_OF_PERICENTER":"61.2721","SITE":"AFETR"},{"MEAN_MOTION_DDOT":"0.0000000000000","FILE":"3881153","OBJECT_TYPE":"PAYLOAD","EPHEMERIS_TYPE":"0","RA_OF_ASC_NODE":"309.8569","SITE":"AFETR","ARG_OF_PERICENTER":"117.5280","PERIOD":"95.590","INCLINATION":"53.0535","MEAN_ANOMALY":"242.5788","MEAN_ELEMENT_THEORY":"SGP4","NORAD_CAT_ID":"48472","TIME_SYSTEM":"UTC","APOAPSIS":"547.669","MEAN_MOTION_DOT":"0.00021253","TLE_LINE1":"1 48472U 21040AW  23095.84291752  .00021253  00000-0  14403-2 0  9996","MEAN_MOTION":"15.06427361","COUNTRY_CODE":"US","TLE_LINE2":"2 48472  53.0535 309.8569 0000779 117.5280 242.5788 15.06427361105383","CENTER_NAME":"EARTH","ECCENTRICITY":"0.00007790","REV_AT_EPOCH":"10538","DECAY_DATE":null,"PERIAPSIS":"546.590","BSTAR":"0.00144030000000","OBJECT_ID":"2021-040AW","CLASSIFICATION_TYPE":"U","OBJECT_NAME":"STARLINK-2722","RCS_SIZE":"LARGE","GP_ID":"229569663","REF_FRAME":"TEME","LAUNCH_DATE":"2021-05-09","ELEMENT_SET_NO":"999","EPOCH":"2023-04-05T20:13:48.073728","SEMIMAJOR_AXIS":"6925.265"},{"SITE":"AFETR","INCLINATION":"53.0527","PERIOD":"95.592","ARG_OF_PERICENTER":"56.6629","MEAN_ELEMENT_THEORY":"SGP4","NORAD_CAT_ID":"48473","MEAN_ANOMALY":"303.4482","FILE":"3881153","MEAN_MOTION_DDOT":"0.0000000000000","OBJECT_TYPE":"PAYLOAD","RA_OF_ASC_NODE":"309.6958","EPHEMERIS_TYPE":"0","TLE_LINE1":"1 48473U 21040AX  23095.87977382  .00022167  00000-0  15021-2 0  9992","TIME_SYSTEM":"UTC","MEAN_MOTION_DOT":"0.00022167","APOAPSIS":"548.079","CENTER_NAME":"EARTH","REV_AT_EPOCH":"10539","ECCENTRICITY":"0.00012810","PERIAPSIS":"546.305","DECAY_DATE":null,"COUNTRY_CODE":"US","MEAN_MOTION":"15.06407054","TLE_LINE2":"2 48473  53.0527 309.6958 0001281  56.6629 303.4482 15.06407054105390","GP_ID":"229568428","REF_FRAME":"TEME","RCS_SIZE":"LARGE","OBJECT_NAME":"STARLINK-2658","LAUNCH_DATE":"2021-05-09","ELEMENT_SET_NO":"999","EPOCH":"2023-04-05T21:06:52.458048","SEMIMAJOR_AXIS":"6925.327","BSTAR":"0.00150210000000","OBJECT_ID":"2021-040AX","CLASSIFICATION_TYPE":"U"},{"CENTER_NAME":"EARTH","REV_AT_EPOCH":"10538","ECCENTRICITY":"0.00006730","PERIAPSIS":"546.674","DECAY_DATE":null,"COUNTRY_CODE":"US","MEAN_MOTION":"15.06424082","TLE_LINE2":"2 48474  53.0530 309.8398 0000673  56.2515 303.8538 15.06424082105384","REF_FRAME":"TEME","GP_ID":"229569179","RCS_SIZE":"LARGE","OBJECT_NAME":"STARLINK-2697","EPOCH":"2023-04-05T20:19:06.170016","LAUNCH_DATE":"2021-05-09","ELEMENT_SET_NO":"999","SEMIMAJOR_AXIS":"6925.275","BSTAR":"0.00137150000000","OBJECT_ID":"2021-040AY","CLASSIFICATION_TYPE":"U","SITE":"AFETR","INCLINATION":"53.0530","PERIOD":"95.591","ARG_OF_PERICENTER":"56.2515","NORAD_CAT_ID":"48474","MEAN_ELEMENT_THEORY":"SGP4","MEAN_ANOMALY":"303.8538","MEAN_MOTION_DDOT":"0.0000000000000","FILE":"3881153","OBJECT_TYPE":"PAYLOAD","RA_OF_ASC_NODE":"309.8398","EPHEMERIS_TYPE":"0","TLE_LINE1":"1 48474U 21040AY  23095.84659919  .00020219  00000-0  13715-2 0  9997","TIME_SYSTEM":"UTC","MEAN_MOTION_DOT":"0.00020219","APOAPSIS":"547.606"},{"SEMIMAJOR_AXIS":"6925.282","EPOCH":"2023-04-05T21:12:11.099520","LAUNCH_DATE":"2021-05-09","ELEMENT_SET_NO":"999","REF_FRAME":"TEME","GP_ID":"229569430","RCS_SIZE":"LARGE","OBJECT_NAME":"STARLINK-2619","CLASSIFICATION_TYPE":"U","OBJECT_ID":"2021-040AZ","BSTAR":"0.00123980000000","PERIAPSIS":"546.557","DECAY_DATE":null,"REV_AT_EPOCH":"10539","ECCENTRICITY":"0.00008520","CENTER_NAME":"EARTH","TLE_LINE2":"2 48475  53.0535 309.6756 0000852 118.6280 241.4795 15.06421626105391","COUNTRY_CODE":"US","MEAN_MOTION":"15.06421626","TLE_LINE1":"1 48475U 21040AZ  23095.88346180  .00018244  00000-0  12398-2 0  9996","MEAN_MOTION_DOT":"0.00018244","APOAPSIS":"547.737","TIME_SYSTEM":"UTC","MEAN_ELEMENT_THEORY":"SGP4","NORAD_CAT_ID":"48475","MEAN_ANOMALY":"241.4795","PERIOD":"95.591","INCLINATION":"53.0535","ARG_OF_PERICENTER":"118.6280","SITE":"AFETR","RA_OF_ASC_NODE":"309.6756","EPHEMERIS_TYPE":"0","OBJECT_TYPE":"PAYLOAD","FILE":"3881153","MEAN_MOTION_DDOT":"0.0000000000000"},{"TLE_LINE1":"1 48476U 21040BA  23095.90557201  .00018943  00000-0  12870-2 0  9999","TIME_SYSTEM":"UTC","APOAPSIS":"547.635","MEAN_MOTION_DOT":"0.00018943","SITE":"AFETR","ARG_OF_PERICENTER":"112.9756","PERIOD":"95.592","INCLINATION":"53.0520","MEAN_ANOMALY":"247.1300","MEAN_ELEMENT_THEORY":"SGP4","NORAD_CAT_ID":"48476","FILE":"3881084","MEAN_MOTION_DDOT":"0.0000000000000","OBJECT_TYPE":"PAYLOAD","EPHEMERIS_TYPE":"0","RA_OF_ASC_NODE":"309.5734","OBJECT_NAME":"STARLINK-2723","GP_ID":"229546477","RCS_SIZE":"LARGE","REF_FRAME":"TEME","ELEMENT_SET_NO":"999","LAUNCH_DATE":"2021-05-09","EPOCH":"2023-04-05T21:44:01.421664","SEMIMAJOR_AXIS":"6925.333","BSTAR":"0.00128700000000","OBJECT_ID":"2021-040BA","CLASSIFICATION_TYPE":"U","CENTER_NAME":"EARTH","ECCENTRICITY":"0.00006310","REV_AT_EPOCH":"10667","DECAY_DATE":null,"PERIAPSIS":"546.761","COUNTRY_CODE":"US","MEAN_MOTION":"15.06405001","TLE_LINE2":"2 48476  53.0520 309.5734 0000631 112.9756 247.1300 15.06405001106677"},{"APOAPSIS":"547.671","MEAN_MOTION_DOT":"0.00012611","TIME_SYSTEM":"UTC","TLE_LINE1":"1 48478U 21040BC  23095.89083159  .00012611  00000-0  86467-3 0  9995","OBJECT_TYPE":"PAYLOAD","EPHEMERIS_TYPE":"0","RA_OF_ASC_NODE":"309.6400","FILE":"3881153","MEAN_MOTION_DDOT":"0.0000000000000","ARG_OF_PERICENTER":"84.2197","INCLINATION":"53.0520","PERIOD":"95.594","MEAN_ANOMALY":"275.8853","NORAD_CAT_ID":"48478","MEAN_ELEMENT_THEORY":"SGP4","SITE":"AFETR","OBJECT_ID":"2021-040BC","CLASSIFICATION_TYPE":"U","BSTAR":"0.00086467000000","SEMIMAJOR_AXIS":"6925.436","OBJECT_NAME":"STARLINK-2728","GP_ID":"229568929","RCS_SIZE":"LARGE","REF_FRAME":"TEME","LAUNCH_DATE":"2021-05-09","ELEMENT_SET_NO":"999","EPOCH":"2023-04-05T21:22:47.849376","COUNTRY_CODE":"US","MEAN_MOTION":"15.06371491","TLE_LINE2":"2 48478  53.0520 309.6400 0000535  84.2197 275.8853 15.06371491105397","ECCENTRICITY":"0.00005350","REV_AT_EPOCH":"10539","DECAY_DATE":null,"PERIAPSIS":"546.930","CENTER_NAME":"EARTH"}];
